[{"OBJECT_NAME":"TRANSPORTER-10 OBJECT AG","OBJECT_ID":"2024-043AG","EPOCH":"2026-03-09T22:12:45.387648","MEAN_MOTION":15.30759727,"ECCENTRICITY":0.00093005,"INCLINATION":97.5471,"RA_OF_ASC_NODE":205.7101,"ARG_OF_PERICENTER":226.5958,"MEAN_ANOMALY":133.4509,"EPHEMERIS_TYPE":0,"CLASSIFICATION_TYPE":"U","NORAD_CAT_ID":59128,"ELEMENT_SET_NO":999,"REV_AT_EPOCH":11192,"BSTAR":0.00032170115,"MEAN_MOTION_DOT":9.498e-5,"MEAN_MOTION_DDOT":0},{"OBJECT_NAME":"STARLINK-31674","OBJECT_ID":"2024-073G","EPOCH":"2026-03-09T01:57:19.827936","MEAN_MOTION":15.27569136,"ECCENTRICITY":6.091e-5,"INCLINATION":43.0001,"RA_OF_ASC_NODE":321.3705,"ARG_OF_PERICENTER":273.7961,"MEAN_ANOMALY":86.2821,"EPHEMERIS_TYPE":0,"CLASSIFICATION_TYPE":"U","NORAD_CAT_ID":59517,"ELEMENT_SET_NO":999,"REV_AT_EPOCH":10608,"BSTAR":-7.2693201e-5,"MEAN_MOTION_DOT":-2.261e-5,"MEAN_MOTION_DDOT":0}]
